OBJECT_NAME,OBJECT_ID,EPOCH,MEAN_MOTION,ECCENTRICITY,INCLINATION,RA_OF_ASC_NODE,ARG_OF_PERICENTER,MEAN_ANOMALY,EPHEMERIS_TYPE,CLASSIFICATION_TYPE,NORAD_CAT_ID,ELEMENT_SET_NO,REV_AT_EPOCH,BSTAR,MEAN_MOTION_DOT,MEAN_MOTION_DDOT
SUOMI NPP,2011-061A,2026-06-06T21:48:22.932864,14.19515249,.00020786,98.7951,98.8551,28.9849,331.1442,0,U,37849,999,75698,.57981995E-4,.78E-6,0
YAOGAN-12,2011-066B,2026-06-06T21:48:45.008928,15.26474404,.00080381,97.1150,196.9607,260.2332,99.7999,0,U,37875,999,81047,.34488651E-3,.8937E-4,0
BEIDOU-2 M4,2012-018B,2026-06-06T09:09:48.312288,1.86229774,.00110999,55.6678,304.4539,277.6909,82.1732,0,U,38251,999,9574,0,-.54E-6,0
ARIRANG-3 (KOMPSAT-3),2012-025B,2026-06-06T21:43:07.741344,14.62197142,.00062079,98.1172,115.5428,135.9256,224.2441,0,U,38338,999,74984,.10361765E-3,.475E-5,0
METOP-B,2012-049A,2026-06-06T21:53:58.480224,14.21429938,.00028199,98.6508,209.6162,43.3380,316.8019,0,U,38771,999,71180,.67548003E-4,.104E-5,0
SJ-9A,2012-056A,2026-06-06T20:35:59.465760,14.85453507,.00240786,97.6702,130.1840,292.9638,66.9037,0,U,38860,999,69805,.13675133E-3,.1132E-4,0
COSMOS 2484 (RODNIK-S 6),2013-001C,2026-06-06T22:09:41.271840,12.42939170,.00272412,82.5019,228.2732,58.4538,301.9197,0,U,39059,999,60728,.69154839E-3,.106E-5,0
SARAL,2013-009A,2026-06-06T21:58:15.293856,14.32853426,.00012908,98.5558,344.6130,356.6458,3.4718,0,U,39086,999,69413,.47750387E-4,.87E-6,0
STRAND-1,2013-009E,2026-06-06T18:02:49.750944,14.37157162,.00074009,98.3920,338.2434,261.0768,98.9581,0,U,39090,999,69556,.11871817E-3,.31E-5,0
BRITE-AUSTRIA,2013-009F,2026-06-06T18:14:53.426976,14.36537975,.00089549,98.3993,337.4545,271.7200,88.2961,0,U,39091,999,69555,.79723782E-4,.191E-5,0
GAOFEN-1,2013-018A,2026-06-06T23:10:33.575232,14.76525016,.00159718,97.9092,230.2410,302.6401,57.3267,0,U,39150,999,70673,.23744032E-4,.115E-5,0
NEE-01 PEGASO,2013-018B,2026-06-06T14:44:01.393728,14.93609178,.0012357,98.1214,301.4159,192.5106,167.5808,0,U,39151,999,70912,.38676E-3,.4027E-4,0
PROBA-V,2013-021A,2026-06-06T15:31:16.404960,14.23594765,.00046432,98.3579,136.7741,149.0860,211.0594,0,U,39159,999,67961,.58066769E-4,.91E-6,0
ARIRANG-5 (KOMPSAT-5),2013-042A,2026-06-06T22:10:06.897216,15.04553415,.00040312,97.6211,344.7683,147.6614,212.4860,0,U,39227,999,70231,.17509307E-3,.2394E-4,0
GONETS-M 5,2013-048A,2026-06-06T21:24:12.750336,12.42891347,.00157332,82.4832,349.8021,234.2166,125.7452,0,U,39249,999,57760,-.19052252E-3,-.17E-6,0
GONETS-M 7,2013-048C,2026-06-06T22:27:03.335328,12.42914328,.00165251,82.4900,352.6918,235.4639,124.4882,0,U,39251,999,57756,.11125412E-4,.11E-6,0
FENGYUN 3C,2013-052A,2026-06-06T22:29:59.617248,14.15752753,.00156856,98.4974,132.2833,55.5494,304.7160,0,U,39260,999,65711,.66730409E-4,.9E-6,0
CASSIOPE,2013-055A,2026-06-06T22:11:14.759232,15.24267519,.02962147,80.9144,79.1738,96.8508,266.6517,0,U,39265,999,66610,.50574328E-3,.4579E-3,-.507829E-6
APRIZESAT 7,2013-066A,2026-06-06T03:38:42.718848,14.91541126,.0034355,97.7702,110.5307,247.0865,112.6726,0,U,39416,999,67958,.15777E-3,.154E-4,0
ZACUBE-1 (TSHEPISOSAT),2013-066B,2026-06-06T16:12:47.865600,15.01121821,.00399629,97.8101,119.9558,284.7807,74.8990,0,U,39417,999,67915,.38849307E-3,.4996E-4,0
APRIZESAT 8,2013-066K,2026-06-06T15:34:03.120672,14.87632138,.00449688,97.8217,105.2639,322.2435,37.5629,0,U,39425,999,67810,.14140341E-3,.1252E-4,0
