SUOMI NPP               
1 37849U 11061A   26157.90859876  .00000078  00000+0  57982-4 0  9992
2 37849  98.7951  98.8551 0002078  28.9849 331.1442 14.19515249756989
YAOGAN-12               
1 37875U 11066B   26157.90885427  .00008937  00000+0  34489-3 0  9995
2 37875  97.1150 196.9607 0008038 260.2332  99.7999 15.26474404810479
BEIDOU-2 M4             
1 38251U 12018B   26157.38180917 -.00000054  00000+0  00000+0 0  9997
2 38251  55.6678 304.4539 0011099 277.6909  82.1732  1.86229774 95740
ARIRANG-3 (KOMPSAT-3)   
1 38338U 12025B   26157.90495071  .00000475  00000+0  10362-3 0  9991
2 38338  98.1172 115.5428 0006207 135.9256 224.2441 14.62197142749845
METOP-B                 
1 38771U 12049A   26157.91248241  .00000104  00000+0  67548-4 0  9992
2 38771  98.6508 209.6162 0002819  43.3380 316.8019 14.21429938711809
SJ-9A                   
1 38860U 12056A   26157.85832715  .00001132  00000+0  13675-3 0  9990
2 38860  97.6702 130.1840 0024078 292.9638  66.9037 14.85453507698056
COSMOS 2484 (RODNIK-S 6)
1 39059U 13001C   26157.92339435  .00000106  00000+0  69155-3 0  9995
2 39059  82.5019 228.2732 0027241  58.4538 301.9197 12.42939170607289
SARAL                   
1 39086U 13009A   26157.91545479  .00000087  00000+0  47750-4 0  9995
2 39086  98.5558 344.6130 0001290 356.6458   3.4718 14.32853426694132
STRAND-1                
1 39090U 13009E   26157.75196471  .00000310  00000+0  11872-3 0  9990
2 39090  98.3920 338.2434 0007400 261.0768  98.9581 14.37157162695560
BRITE-AUSTRIA           
1 39091U 13009F   26157.76034059  .00000191  00000+0  79724-4 0  9993
2 39091  98.3993 337.4545 0008954 271.7200  88.2961 14.36537975695555
GAOFEN-1                
1 39150U 13018A   26157.96566638  .00000115  00000+0  23744-4 0  9991
2 39150  97.9092 230.2410 0015971 302.6401  57.3267 14.76525016706737
NEE-01 PEGASO           
1 39151U 13018B   26157.61390502  .00004027  00000+0  38676-3 0  9994
2 39151  98.1214 301.4159 0012357 192.5106 167.5808 14.93609178709123
PROBA-V                 
1 39159U 13021A   26157.64671765  .00000091  00000+0  58067-4 0  9996
2 39159  98.3579 136.7741 0004643 149.0860 211.0594 14.23594765679611
ARIRANG-5 (KOMPSAT-5)   
1 39227U 13042A   26157.92369094  .00002394  00000+0  17509-3 0  9998
2 39227  97.6211 344.7683 0004031 147.6614 212.4860 15.04553415702312
GONETS-M 5              
1 39249U 13048A   26157.89181424 -.00000017  00000+0 -19052-3 0  9990
2 39249  82.4832 349.8021 0015733 234.2166 125.7452 12.42891347577608
GONETS-M 7              
1 39251U 13048C   26157.93545527  .00000011  00000+0  11125-4 0  9992
2 39251  82.4900 352.6918 0016525 235.4639 124.4882 12.42914328577565
FENGYUN 3C              
1 39260U 13052A   26157.93749557  .00000090  00000+0  66730-4 0  9995
2 39260  98.4974 132.2833 0015685  55.5494 304.7160 14.15752753657113
CASSIOPE                
1 39265U 13055A   26157.92447638  .00045790 -50783-6  50574-3 0  9992
2 39265  80.9144  79.1738 0296214  96.8508 266.6517 15.24267519666102
APRIZESAT 7             
1 39416U 13066A   26157.15188332  .00001540  00000+0  15777-3 0  9990
2 39416  97.7702 110.5307 0034355 247.0865 112.6726 14.91541126679580
ZACUBE-1 (TSHEPISOSAT)  
1 39417U 13066B   26157.67555400  .00004996  00000+0  38849-3 0  9995
2 39417  97.8101 119.9558 0039962 284.7807  74.8990 15.01121821679152
APRIZESAT 8             
1 39425U 13066K   26157.64864723  .00001252  00000+0  14140-3 0  9992
2 39425  97.8217 105.2639 0044968 322.2435  37.5629 14.87632138678104
